[
    {
        "Altitude(m)": 611965.1741271466,
        "Argument of Periapsis(deg)": 0.0,
        "Eccentricity": 0.0,
        "Inclination(deg)": 60.0,
        "Latitude(deg)": 59.14012752686405,
        "Longitude(deg)": -46.030303248238006,
        "Mean Anomaly(deg)": -278.1818,
        "RAAN(deg)": 340.00000000000006,
        "Satellite Name": "Test1 1501",
        "Satellite Number": 1501,
        "Semi-Major Axis(m)": 6980739.136638005,
        "Time(s)": 0
    },
    {
        "Altitude(m)": 611995.8001372019,
        "Argument of Periapsis(deg)": 0.00010418945913296404,
        "Eccentricity": 0.0,
        "Inclination(deg)": 60.0,
        "Latitude(deg)": 59.283228956577204,
        "Longitude(deg)": -44.89694286496727,
        "Mean Anomaly(deg)": -277.56169385453813,
        "RAAN(deg)": 339.99957995086027,
        "Satellite Name": "Test1 1501",
        "Satellite Number": 1501,
        "Semi-Major Axis(m)": 6980739.136638005,
        "Time(s)": 10
    }
]